ONEWEB-0321             
1 49191U 21083F   26152.29212232  .00000090  00000+0  18938-3 0  9997
2 49191  87.9182 277.6034 0001622 100.0564 260.0752 13.20770895234730
ONEWEB-0322             
1 49192U 21083G   26152.46281671  .00000351  00000+0  92494-3 0  9999
2 49192  87.8938 323.3683 0001431  85.9594 274.1699 13.13469103228851
ONEWEB-0324             
1 49193U 21083H   26153.03577541  .00000531  00000+0  13137-2 0  9994
2 49193  87.9196 338.4650 0002511  93.4744 266.6675 13.18682549228004
ONEWEB-0325             
1 49194U 21083J   26152.43213867 -.00000001  00000+0 -35466-4 0  9991
2 49194  87.9156 338.5945 0001838  88.3773 271.7570 13.18686438227938
ONEWEB-0326             
1 49195U 21083K   26152.52332183 -.00000831  00000+0 -21407-2 0  9994
2 49195  87.9167 338.5730 0002101  86.2277 273.9095 13.18689435227939
ONEWEB-0327             
1 49196U 21083L   26152.59892765  .00000045  00000+0  82398-4 0  9992
2 49196  87.9157 338.5634 0002172  83.5437 276.5942 13.18686723227968
ONEWEB-0328             
1 49197U 21083M   26152.52883474  .00000226  00000+0  58402-3 0  9992
2 49197  87.8950 323.3268 0001815  97.3714 262.7621 13.13469563228843
ONEWEB-0331             
1 49198U 21083N   26152.51645477  .00000072  00000+0  14889-3 0  9991
2 49198  87.9166 338.5679 0002173  90.6069 269.5312 13.18686966227940
ONEWEB-0333             
1 49199U 21083P   26152.52375254  .00000116  00000+0  28371-3 0  9996
2 49199  87.8941 323.3555 0001817  91.1287 269.0051 13.13469339228852
ONEWEB-0334             
1 49200U 21083Q   26151.85525715 -.00000033  00000+0 -11399-3 0  9995
2 49200  87.9178 277.7025 0001030  88.3123 271.8128 13.20771904234637
ONEWEB-0335             
1 49201U 21083R   26152.51868251  .00000028  00000+0  42499-4 0  9993
2 49201  87.8941 323.3530 0001997  93.9864 266.1493 13.13470412228862
ONEWEB-0336             
1 49202U 21083S   26153.02313982 -.00000029  00000+0 -11516-3 0  9995
2 49202  87.8939 323.2488 0002194  98.6501 261.4876 13.13468618228926
ONEWEB-0337             
1 49203U 21083T   26153.03316162 -.00000278  00000+0 -79656-3 0  9995
2 49203  87.8938 323.2530 0001898  98.5967 261.5377 13.13468801228920
ONEWEB-0338             
1 49204U 21083U   26152.28367999 -.00000205  00000+0 -53703-3 0  9991
2 49204  87.9172 277.6202 0001574  96.6037 263.5276 13.20770769234719
ONEWEB-0339             
1 49205U 21083V   26152.43233793 -.00000208  00000+0 -60504-3 0  9993
2 49205  87.8940 323.3651 0001524  94.4808 265.6495 13.13469812228823
ONEWEB-0340             
1 49206U 21083W   26153.03409980  .00000014  00000+0  32354-5 0  9991
2 49206  87.9167 338.4705 0001968  91.2393 268.8965 13.18687011227979
