[{"OBJECT_NAME":"ONEWEB-0321","OBJECT_ID":"2021-083F","EPOCH":"2026-06-01T07:00:39.368448","MEAN_MOTION":13.20770895,"ECCENTRICITY":0.0001622,"INCLINATION":87.9182,"RA_OF_ASC_NODE":277.6034,"ARG_OF_PERICENTER":100.0564,"MEAN_ANOMALY":260.0752,"EPHEMERIS_TYPE":0,"CLASSIFICATION_TYPE":"U","NORAD_CAT_ID":49191,"ELEMENT_SET_NO":999,"REV_AT_EPOCH":23473,"BSTAR":0.00018938,"MEAN_MOTION_DOT":9e-07,"MEAN_MOTION_DDOT":0.0},{"OBJECT_NAME":"ONEWEB-0322","OBJECT_ID":"2021-083G","EPOCH":"2026-06-01T11:06:27.363744","MEAN_MOTION":13.13469103,"ECCENTRICITY":0.0001431,"INCLINATION":87.8938,"RA_OF_ASC_NODE":323.3683,"ARG_OF_PERICENTER":85.9594,"MEAN_ANOMALY":274.1699,"EPHEMERIS_TYPE":0,"CLASSIFICATION_TYPE":"U","NORAD_CAT_ID":49192,"ELEMENT_SET_NO":999,"REV_AT_EPOCH":22885,"BSTAR":0.00092494,"MEAN_MOTION_DOT":3.51e-06,"MEAN_MOTION_DDOT":0.0},{"OBJECT_NAME":"ONEWEB-0324","OBJECT_ID":"2021-083H","EPOCH":"2026-06-02T00:51:30.995424","MEAN_MOTION":13.18682549,"ECCENTRICITY":0.0002511,"INCLINATION":87.9196,"RA_OF_ASC_NODE":338.465,"ARG_OF_PERICENTER":93.4744,"MEAN_ANOMALY":266.6675,"EPHEMERIS_TYPE":0,"CLASSIFICATION_TYPE":"U","NORAD_CAT_ID":49193,"ELEMENT_SET_NO":999,"REV_AT_EPOCH":22800,"BSTAR":0.0013137,"MEAN_MOTION_DOT":5.31e-06,"MEAN_MOTION_DDOT":0.0},{"OBJECT_NAME":"ONEWEB-0325","OBJECT_ID":"2021-083J","EPOCH":"2026-06-01T10:22:16.781088","MEAN_MOTION":13.18686438,"ECCENTRICITY":0.0001838,"INCLINATION":87.9156,"RA_OF_ASC_NODE":338.5945,"ARG_OF_PERICENTER":88.3773,"MEAN_ANOMALY":271.757,"EPHEMERIS_TYPE":0,"CLASSIFICATION_TYPE":"U","NORAD_CAT_ID":49194,"ELEMENT_SET_NO":999,"REV_AT_EPOCH":22793,"BSTAR":-3.5466e-05,"MEAN_MOTION_DOT":-1e-08,"MEAN_MOTION_DDOT":0.0},{"OBJECT_NAME":"ONEWEB-0326","OBJECT_ID":"2021-083K","EPOCH":"2026-06-01T12:33:35.006112","MEAN_MOTION":13.18689435,"ECCENTRICITY":0.0002101,"INCLINATION":87.9167,"RA_OF_ASC_NODE":338.573,"ARG_OF_PERICENTER":86.2277,"MEAN_ANOMALY":273.9095,"EPHEMERIS_TYPE":0,"CLASSIFICATION_TYPE":"U","NORAD_CAT_ID":49195,"ELEMENT_SET_NO":999,"REV_AT_EPOCH":22793,"BSTAR":-0.0021407,"MEAN_MOTION_DOT":-8.31e-06,"MEAN_MOTION_DDOT":0.0},{"OBJECT_NAME":"ONEWEB-0327","OBJECT_ID":"2021-083L","EPOCH":"2026-06-01T14:22:27.348960","MEAN_MOTION":13.18686723,"ECCENTRICITY":0.0002172,"INCLINATION":87.9157,"RA_OF_ASC_NODE":338.5634,"ARG_OF_PERICENTER":83.5437,"MEAN_ANOMALY":276.5942,"EPHEMERIS_TYPE":0,"CLASSIFICATION_TYPE":"U","NORAD_CAT_ID":49196,"ELEMENT_SET_NO":999,"REV_AT_EPOCH":22796,"BSTAR":8.2398e-05,"MEAN_MOTION_DOT":4.5e-07,"MEAN_MOTION_DDOT":0.0},{"OBJECT_NAME":"ONEWEB-0328","OBJECT_ID":"2021-083M","EPOCH":"2026-06-01T12:41:31.321536","MEAN_MOTION":13.13469563,"ECCENTRICITY":0.0001815,"INCLINATION":87.895,"RA_OF_ASC_NODE":323.3268,"ARG_OF_PERICENTER":97.3714,"MEAN_ANOMALY":262.7621,"EPHEMERIS_TYPE":0,"CLASSIFICATION_TYPE":"U","NORAD_CAT_ID":49197,"ELEMENT_SET_NO":999,"REV_AT_EPOCH":22884,"BSTAR":0.00058402,"MEAN_MOTION_DOT":2.26e-06,"MEAN_MOTION_DDOT":0.0},{"OBJECT_NAME":"ONEWEB-0331","OBJECT_ID":"2021-083N","EPOCH":"2026-06-01T12:23:41.692128","MEAN_MOTION":13.18686966,"ECCENTRICITY":0.0002173,"INCLINATION":87.9166,"RA_OF_ASC_NODE":338.5679,"ARG_OF_PERICENTER":90.6069,"MEAN_ANOMALY":269.5312,"EPHEMERIS_TYPE":0,"CLASSIFICATION_TYPE":"U","NORAD_CAT_ID":49198,"ELEMENT_SET_NO":999,"REV_AT_EPOCH":22794,"BSTAR":0.00014889,"MEAN_MOTION_DOT":7.2e-07,"MEAN_MOTION_DDOT":0.0},{"OBJECT_NAME":"ONEWEB-0333","OBJECT_ID":"2021-083P","EPOCH":"2026-06-01T12:34:12.219456","MEAN_MOTION":13.13469339,"ECCENTRICITY":0.0001817,"INCLINATION":87.8941,"RA_OF_ASC_NODE":323.3555,"ARG_OF_PERICENTER":91.1287,"MEAN_ANOMALY":269.0051,"EPHEMERIS_TYPE":0,"CLASSIFICATION_TYPE":"U","NORAD_CAT_ID":49199,"ELEMENT_SET_NO":999,"REV_AT_EPOCH":22885,"BSTAR":0.00028371,"MEAN_MOTION_DOT":1.16e-06,"MEAN_MOTION_DDOT":0.0},{"OBJECT_NAME":"ONEWEB-0334","OBJECT_ID":"2021-083Q","EPOCH":"2026-05-31T20:31:34.217760","MEAN_MOTION":13.20771904,"ECCENTRICITY":0.000103,"INCLINATION":87.9178,"RA_OF_ASC_NODE":277.7025,"ARG_OF_PERICENTER":88.3123,"MEAN_ANOMALY":271.8128,"EPHEMERIS_TYPE":0,"CLASSIFICATION_TYPE":"U","NORAD_CAT_ID":49200,"ELEMENT_SET_NO":999,"REV_AT_EPOCH":23463,"BSTAR":-0.00011399,"MEAN_MOTION_DOT":-3.3e-07,"MEAN_MOTION_DDOT":0.0},{"OBJECT_NAME":"ONEWEB-0335","OBJECT_ID":"2021-083R","EPOCH":"2026-06-01T12:26:54.168864","MEAN_MOTION":13.13470412,"ECCENTRICITY":0.0001997,"INCLINATION":87.8941,"RA_OF_ASC_NODE":323.353,"ARG_OF_PERICENTER":93.9864,"MEAN_ANOMALY":266.1493,"EPHEMERIS_TYPE":0,"CLASSIFICATION_TYPE":"U","NORAD_CAT_ID":49201,"ELEMENT_SET_NO":999,"REV_AT_EPOCH":22886,"BSTAR":4.2499e-05,"MEAN_MOTION_DOT":2.8e-07,"MEAN_MOTION_DDOT":0.0},{"OBJECT_NAME":"ONEWEB-0336","OBJECT_ID":"2021-083S","EPOCH":"2026-06-02T00:33:19.280448","MEAN_MOTION":13.13468618,"ECCENTRICITY":0.0002194,"INCLINATION":87.8939,"RA_OF_ASC_NODE":323.2488,"ARG_OF_PERICENTER":98.6501,"MEAN_ANOMALY":261.4876,"EPHEMERIS_TYPE":0,"CLASSIFICATION_TYPE":"U","NORAD_CAT_ID":49202,"ELEMENT_SET_NO":999,"REV_AT_EPOCH":22892,"BSTAR":-0.00011516,"MEAN_MOTION_DOT":-2.9e-07,"MEAN_MOTION_DDOT":0.0},{"OBJECT_NAME":"ONEWEB-0337","OBJECT_ID":"2021-083T","EPOCH":"2026-06-02T00:47:45.163968","MEAN_MOTION":13.13468801,"ECCENTRICITY":0.0001898,"INCLINATION":87.8938,"RA_OF_ASC_NODE":323.253,"ARG_OF_PERICENTER":98.5967,"MEAN_ANOMALY":261.5377,"EPHEMERIS_TYPE":0,"CLASSIFICATION_TYPE":"U","NORAD_CAT_ID":49203,"ELEMENT_SET_NO":999,"REV_AT_EPOCH":22892,"BSTAR":-0.0007965600000000001,"MEAN_MOTION_DOT":-2.78e-06,"MEAN_MOTION_DDOT":0.0},{"OBJECT_NAME":"ONEWEB-0338","OBJECT_ID":"2021-083U","EPOCH":"2026-06-01T06:48:29.951136","MEAN_MOTION":13.20770769,"ECCENTRICITY":0.0001574,"INCLINATION":87.9172,"RA_OF_ASC_NODE":277.6202,"ARG_OF_PERICENTER":96.6037,"MEAN_ANOMALY":263.5276,"EPHEMERIS_TYPE":0,"CLASSIFICATION_TYPE":"U","NORAD_CAT_ID":49204,"ELEMENT_SET_NO":999,"REV_AT_EPOCH":23471,"BSTAR":-0.00053703,"MEAN_MOTION_DOT":-2.05e-06,"MEAN_MOTION_DDOT":0.0},{"OBJECT_NAME":"ONEWEB-0339","OBJECT_ID":"2021-083V","EPOCH":"2026-06-01T10:22:33.997152","MEAN_MOTION":13.13469812,"ECCENTRICITY":0.0001524,"INCLINATION":87.894,"RA_OF_ASC_NODE":323.3651,"ARG_OF_PERICENTER":94.4808,"MEAN_ANOMALY":265.6495,"EPHEMERIS_TYPE":0,"CLASSIFICATION_TYPE":"U","NORAD_CAT_ID":49205,"ELEMENT_SET_NO":999,"REV_AT_EPOCH":22882,"BSTAR":-0.00060504,"MEAN_MOTION_DOT":-2.08e-06,"MEAN_MOTION_DDOT":0.0},{"OBJECT_NAME":"ONEWEB-0340","OBJECT_ID":"2021-083W","EPOCH":"2026-06-02T00:49:06.222720","MEAN_MOTION":13.18687011,"ECCENTRICITY":0.0001968,"INCLINATION":87.9167,"RA_OF_ASC_NODE":338.4705,"ARG_OF_PERICENTER":91.2393,"MEAN_ANOMALY":268.8965,"EPHEMERIS_TYPE":0,"CLASSIFICATION_TYPE":"U","NORAD_CAT_ID":49206,"ELEMENT_SET_NO":999,"REV_AT_EPOCH":22797,"BSTAR":3.2354000000000004e-06,"MEAN_MOTION_DOT":1.4e-07,"MEAN_MOTION_DDOT":0.0}]